start=new Date('2023-03-17T00:00:00.000Z').valueOf();
sats=[{"FILE":"3862592","PERIOD":"91.725","EPOCH":"2023-03-16T18:34:39.047520","RCS_SIZE":"LARGE","NORAD_CAT_ID":"55408","GP_ID":"228286518","MEAN_MOTION":"15.69913519","EPHEMERIS_TYPE":"0","ARG_OF_PERICENTER":"267.9592","ECCENTRICITY":"0.00040610","REF_FRAME":"TEME","INCLINATION":"69.9989","SITE":"AFWTR","COUNTRY_CODE":"US","MEAN_MOTION_DOT":"0.00003451","OBJECT_TYPE":"PAYLOAD","RA_OF_ASC_NODE":"325.7397","LAUNCH_DATE":"2023-01-31","DECAY_DATE":null,"MEAN_ELEMENT_THEORY":"SGP4","MEAN_ANOMALY":"92.1138","ELEMENT_SET_NO":"999","MEAN_MOTION_DDOT":"0.0000000000000","CENTER_NAME":"EARTH","OBJECT_ID":"2023-014T","TLE_LINE2":"2 55408  69.9989 325.7397 0004061 267.9592  92.1138 15.69913519  8068","CLASSIFICATION_TYPE":"U","TIME_SYSTEM":"UTC","TLE_LINE1":"1 55408U 23014T   23075.77406305  .00003451  00000-0  30468-4 0  9999","APOAPSIS":"361.882","OBJECT_NAME":"STARLINK-5092","PERIAPSIS":"356.410","SEMIMAJOR_AXIS":"6737.281","BSTAR":"0.00003046800000","REV_AT_EPOCH":"806"},{"MEAN_MOTION":"15.69920562","EPHEMERIS_TYPE":"0","ECCENTRICITY":"0.00036660","REF_FRAME":"TEME","ARG_OF_PERICENTER":"268.5924","FILE":"3862592","PERIOD":"91.724","EPOCH":"2023-03-16T20:06:06.114528","NORAD_CAT_ID":"55409","RCS_SIZE":"LARGE","GP_ID":"228286269","OBJECT_TYPE":"PAYLOAD","RA_OF_ASC_NODE":"325.5614","LAUNCH_DATE":"2023-01-31","ELEMENT_SET_NO":"999","DECAY_DATE":null,"MEAN_ELEMENT_THEORY":"SGP4","MEAN_ANOMALY":"91.4852","MEAN_MOTION_DDOT":"0.0000000000000","CENTER_NAME":"EARTH","INCLINATION":"69.9980","SITE":"AFWTR","MEAN_MOTION_DOT":"-0.00000547","COUNTRY_CODE":"US","TLE_LINE1":"1 55409U 23014U   23075.83757077 -.00000547  00000-0 -27777-5 0  9997","APOAPSIS":"361.596","OBJECT_NAME":"STARLINK-5047","OBJECT_ID":"2023-014U","TLE_LINE2":"2 55409  69.9980 325.5614 0003666 268.5924  91.4852 15.69920562  8078","CLASSIFICATION_TYPE":"U","TIME_SYSTEM":"UTC","BSTAR":"-0.00000277770000","REV_AT_EPOCH":"807","PERIAPSIS":"356.656","SEMIMAJOR_AXIS":"6737.261"},{"APOAPSIS":"361.589","OBJECT_NAME":"STARLINK-5633","TLE_LINE1":"1 55410U 23014V   23075.83820568  .00000828  00000-0  86586-5 0  9998","CLASSIFICATION_TYPE":"U","TIME_SYSTEM":"UTC","TLE_LINE2":"2 55410  69.9991 325.5624 0003610 258.7604 101.3186 15.69909932  8077","OBJECT_ID":"2023-014V","REV_AT_EPOCH":"807","BSTAR":"0.00000865860000","SEMIMAJOR_AXIS":"6737.292","PERIAPSIS":"356.725","EPHEMERIS_TYPE":"0","ECCENTRICITY":"0.00036100","REF_FRAME":"TEME","ARG_OF_PERICENTER":"258.7604","MEAN_MOTION":"15.69909932","NORAD_CAT_ID":"55410","RCS_SIZE":"LARGE","GP_ID":"228254694","PERIOD":"91.725","EPOCH":"2023-03-16T20:07:00.970752","FILE":"3862378","MEAN_MOTION_DDOT":"0.0000000000000","CENTER_NAME":"EARTH","DECAY_DATE":null,"MEAN_ELEMENT_THEORY":"SGP4","MEAN_ANOMALY":"101.3186","ELEMENT_SET_NO":"999","LAUNCH_DATE":"2023-01-31","RA_OF_ASC_NODE":"325.5624","OBJECT_TYPE":"PAYLOAD","MEAN_MOTION_DOT":"0.00000828","COUNTRY_CODE":"US","SITE":"AFWTR","INCLINATION":"69.9991"},{"OBJECT_TYPE":"PAYLOAD","RA_OF_ASC_NODE":"326.1009","LAUNCH_DATE":"2023-01-31","DECAY_DATE":null,"MEAN_ELEMENT_THEORY":"SGP4","ELEMENT_SET_NO":"999","MEAN_ANOMALY":"93.4528","MEAN_MOTION_DDOT":"0.0000000000000","CENTER_NAME":"EARTH","INCLINATION":"69.9981","SITE":"AFWTR","MEAN_MOTION_DOT":"0.00000261","COUNTRY_CODE":"US","MEAN_MOTION":"15.69914236","EPHEMERIS_TYPE":"0","ECCENTRICITY":"0.00036540","REF_FRAME":"TEME","ARG_OF_PERICENTER":"266.6249","FILE":"3862363","PERIOD":"91.725","EPOCH":"2023-03-16T15:31:18.170976","NORAD_CAT_ID":"55411","RCS_SIZE":"LARGE","GP_ID":"228254714","BSTAR":"0.00000394550000","REV_AT_EPOCH":"710","PERIAPSIS":"356.683","SEMIMAJOR_AXIS":"6737.279","TLE_LINE1":"1 55411U 23014W   23075.64673809  .00000261  00000-0  39455-5 0  9996","APOAPSIS":"361.606","OBJECT_NAME":"STARLINK-5605","OBJECT_ID":"2023-014W","TLE_LINE2":"2 55411  69.9981 326.1009 0003654 266.6249  93.4528 15.69914236  7109","CLASSIFICATION_TYPE":"U","TIME_SYSTEM":"UTC"},{"TLE_LINE2":"2 55412  69.9976 325.5624 0003296 265.2862  94.7958 15.69930414  7138","OBJECT_ID":"2023-014X","CLASSIFICATION_TYPE":"U","TIME_SYSTEM":"UTC","TLE_LINE1":"1 55412U 23014X   23075.83830412 -.00003417  00000-0 -26653-4 0  9996","APOAPSIS":"361.319","OBJECT_NAME":"STARLINK-5033","SEMIMAJOR_AXIS":"6737.233","PERIAPSIS":"356.877","BSTAR":"-0.00002665300000","REV_AT_EPOCH":"713","FILE":"3862363","NORAD_CAT_ID":"55412","RCS_SIZE":"LARGE","GP_ID":"228255006","EPOCH":"2023-03-16T20:07:09.475968","PERIOD":"91.724","EPHEMERIS_TYPE":"0","ECCENTRICITY":"0.00032960","REF_FRAME":"TEME","ARG_OF_PERICENTER":"265.2862","MEAN_MOTION":"15.69930414","SITE":"AFWTR","INCLINATION":"69.9976","COUNTRY_CODE":"US","MEAN_MOTION_DOT":"-0.00003417","LAUNCH_DATE":"2023-01-31","RA_OF_ASC_NODE":"325.5624","OBJECT_TYPE":"PAYLOAD","MEAN_MOTION_DDOT":"0.0000000000000","CENTER_NAME":"EARTH","DECAY_DATE":null,"ELEMENT_SET_NO":"999","MEAN_ANOMALY":"94.7958","MEAN_ELEMENT_THEORY":"SGP4"},{"OBJECT_NAME":"STARLINK-5060","APOAPSIS":"361.129","TLE_LINE1":"1 55413U 23014Y   23075.13710592 -.00007919  00000-0 -64234-4 0  9994","CLASSIFICATION_TYPE":"U","TIME_SYSTEM":"UTC","OBJECT_ID":"2023-014Y","TLE_LINE2":"2 55413  69.9994 327.5328 0002864 290.2487  69.8401 15.69894894  7028","REV_AT_EPOCH":"702","BSTAR":"-0.00006423400000","PERIAPSIS":"357.270","SEMIMAJOR_AXIS":"6737.335","MEAN_MOTION":"15.69894894","REF_FRAME":"TEME","ECCENTRICITY":"0.00028640","ARG_OF_PERICENTER":"290.2487","EPHEMERIS_TYPE":"0","PERIOD":"91.726","EPOCH":"2023-03-16T03:17:25.951488","GP_ID":"228213213","NORAD_CAT_ID":"55413","RCS_SIZE":"LARGE","FILE":"3861691","DECAY_DATE":null,"ELEMENT_SET_NO":"999","MEAN_ELEMENT_THEORY":"SGP4","MEAN_ANOMALY":"69.8401","CENTER_NAME":"EARTH","MEAN_MOTION_DDOT":"0.0000000000000","OBJECT_TYPE":"PAYLOAD","LAUNCH_DATE":"2023-01-31","RA_OF_ASC_NODE":"327.5328","MEAN_MOTION_DOT":"-0.00007919","COUNTRY_CODE":"US","INCLINATION":"69.9994","SITE":"AFWTR"},{"PERIAPSIS":"357.032","SEMIMAJOR_AXIS":"6737.284","REV_AT_EPOCH":"796","BSTAR":"0.00008228000000","CLASSIFICATION_TYPE":"U","TIME_SYSTEM":"UTC","OBJECT_ID":"2023-014Z","TLE_LINE2":"2 55414  69.9986 327.5369 0003143 279.8675  80.2166 15.69912562  7969","OBJECT_NAME":"STARLINK-5620","APOAPSIS":"361.267","TLE_LINE1":"1 55414U 23014Z   23075.13763630  .00009687  00000-0  82280-4 0  9999","COUNTRY_CODE":"US","MEAN_MOTION_DOT":"0.00009687","INCLINATION":"69.9986","SITE":"AFWTR","MEAN_ANOMALY":"80.2166","DECAY_DATE":null,"MEAN_ELEMENT_THEORY":"SGP4","ELEMENT_SET_NO":"999","CENTER_NAME":"EARTH","MEAN_MOTION_DDOT":"0.0000000000000","OBJECT_TYPE":"PAYLOAD","RA_OF_ASC_NODE":"327.5369","LAUNCH_DATE":"2023-01-31","PERIOD":"91.725","EPOCH":"2023-03-16T03:18:11.776320","GP_ID":"228213233","RCS_SIZE":"LARGE","NORAD_CAT_ID":"55414","FILE":"3861688","MEAN_MOTION":"15.69912562","REF_FRAME":"TEME","ARG_OF_PERICENTER":"279.8675","ECCENTRICITY":"0.00031430","EPHEMERIS_TYPE":"0"},{"TIME_SYSTEM":"UTC","CLASSIFICATION_TYPE":"U","OBJECT_ID":"2023-014AA","TLE_LINE2":"2 55415  69.9985 325.3428 0003482 269.3045 174.7752 15.69939495  7146","OBJECT_NAME":"STARLINK-5618","APOAPSIS":"361.418","TLE_LINE1":"1 55415U 23014AA  23075.91667824 -.00041146  00000-0 -34187-3 0  9994","PERIAPSIS":"356.726","SEMIMAJOR_AXIS":"6737.207","REV_AT_EPOCH":"714","BSTAR":"-0.00034187000000","PERIOD":"91.723","EPOCH":"2023-03-16T22:00:00.999936","GP_ID":"228255012","RCS_SIZE":"LARGE","NORAD_CAT_ID":"55415","FILE":"3862363","MEAN_MOTION":"15.69939495","ARG_OF_PERICENTER":"269.3045","ECCENTRICITY":"0.00034820","REF_FRAME":"TEME","EPHEMERIS_TYPE":"0","MEAN_MOTION_DOT":"-0.00041146","COUNTRY_CODE":"US","INCLINATION":"69.9985","SITE":"AFWTR","MEAN_ANOMALY":"174.7752","DECAY_DATE":null,"MEAN_ELEMENT_THEORY":"SGP4","ELEMENT_SET_NO":"999","CENTER_NAME":"EARTH","MEAN_MOTION_DDOT":"0.0000000000000","OBJECT_TYPE":"PAYLOAD","LAUNCH_DATE":"2023-01-31","RA_OF_ASC_NODE":"325.3428"},{"TLE_LINE1":"1 55416U 23014AB  23075.83872998  .00001013  00000-0  10193-4 0  9995","APOAPSIS":"361.800","OBJECT_NAME":"STARLINK-5624","OBJECT_ID":"2023-014AB","TLE_LINE2":"2 55416  69.9980 325.5644 0003966 265.7099  94.3643 15.69919875  7135","CLASSIFICATION_TYPE":"U","TIME_SYSTEM":"UTC","BSTAR":"0.00001019300000","REV_AT_EPOCH":"713","PERIAPSIS":"356.456","SEMIMAJOR_AXIS":"6737.263","MEAN_MOTION":"15.69919875","EPHEMERIS_TYPE":"0","ARG_OF_PERICENTER":"265.7099","ECCENTRICITY":"0.00039660","REF_FRAME":"TEME","FILE":"3862364","EPOCH":"2023-03-16T20:07:46.270272","PERIOD":"91.724","RCS_SIZE":"LARGE","NORAD_CAT_ID":"55416","GP_ID":"228255030","OBJECT_TYPE":"PAYLOAD","RA_OF_ASC_NODE":"325.5644","LAUNCH_DATE":"2023-01-31","MEAN_ELEMENT_THEORY":"SGP4","DECAY_DATE":null,"MEAN_ANOMALY":"94.3643","ELEMENT_SET_NO":"999","MEAN_MOTION_DDOT":"0.0000000000000","CENTER_NAME":"EARTH","INCLINATION":"69.9980","SITE":"AFWTR","MEAN_MOTION_DOT":"0.00001013","COUNTRY_CODE":"US"},{"SITE":"AFWTR","INCLINATION":"69.9977","MEAN_MOTION_DOT":"0.00000575","COUNTRY_CODE":"US","LAUNCH_DATE":"2023-01-31","RA_OF_ASC_NODE":"326.1007","OBJECT_TYPE":"PAYLOAD","CENTER_NAME":"EARTH","MEAN_MOTION_DDOT":"0.0000000000000","DECAY_DATE":null,"MEAN_ANOMALY":"93.2315","ELEMENT_SET_NO":"999","MEAN_ELEMENT_THEORY":"SGP4","FILE":"3862433","GP_ID":"228256381","RCS_SIZE":"LARGE","NORAD_CAT_ID":"55417","PERIOD":"91.725","EPOCH":"2023-03-16T15:32:03.582816","REF_FRAME":"TEME","ECCENTRICITY":"0.00038800","ARG_OF_PERICENTER":"266.8436","EPHEMERIS_TYPE":"0","MEAN_MOTION":"15.69916694","SEMIMAJOR_AXIS":"6737.272","PERIAPSIS":"356.523","BSTAR":"0.00000655220000","REV_AT_EPOCH":"804","TLE_LINE2":"2 55417  69.9977 326.1007 0003880 266.8436  93.2315 15.69916694  8045","OBJECT_ID":"2023-014AC","CLASSIFICATION_TYPE":"U","TIME_SYSTEM":"UTC","TLE_LINE1":"1 55417U 23014AC  23075.64726369  .00000575  00000-0  65522-5 0  9994","OBJECT_NAME":"STARLINK-5616","APOAPSIS":"361.751"}];
